{
  "type": "FeatureCollection",
  "features": [
    {
      "type": "Feature",
      "properties": {
        "label": "1-mile boundary",
        "radius_miles": 1,
        "distance_definition": "Straight-line geodesic radius from Main Campus reference point"
      },
      "geometry": {
        "type": "LineString",
        "coordinates": [
          [
            -78.68168,
            35.7939832
          ],
          [
            -78.6779702,
            35.7936668
          ],
          [
            -78.6744226,
            35.7927317
          ],
          [
            -78.6719621,
            35.7916478
          ],
          [
            -78.6690635,
            35.7897434
          ],
          [
            -78.6667166,
            35.7873917
          ],
          [
            -78.6653811,
            35.7853957
          ],
          [
            -78.6642291,
            35.7825179
          ],
          [
            -78.6638399,
            35.7795087
          ],
          [
            -78.6642304,
            35.7764996
          ],
          [
            -78.6653835,
            35.7736221
          ],
          [
            -78.6667196,
            35.7716264
          ],
          [
            -78.6690668,
            35.7692753
          ],
          [
            -78.6719651,
            35.7673714
          ],
          [
            -78.674425,
            35.7662879
          ],
          [
            -78.6779715,
            35.7653531
          ],
          [
            -78.68168,
            35.7650368
          ],
          [
            -78.6853885,
            35.7653531
          ],
          [
            -78.688935,
            35.7662879
          ],
          [
            -78.6913949,
            35.7673714
          ],
          [
            -78.6942932,
            35.7692753
          ],
          [
            -78.6966404,
            35.7716264
          ],
          [
            -78.6979765,
            35.7736221
          ],
          [
            -78.6991296,
            35.7764996
          ],
          [
            -78.6995201,
            35.7795087
          ],
          [
            -78.6991309,
            35.7825179
          ],
          [
            -78.6979789,
            35.7853957
          ],
          [
            -78.6966434,
            35.7873917
          ],
          [
            -78.6942965,
            35.7897434
          ],
          [
            -78.6913979,
            35.7916478
          ],
          [
            -78.6889374,
            35.7927317
          ],
          [
            -78.6853898,
            35.7936668
          ],
          [
            -78.68168,
            35.7939832
          ]
        ]
      }
    },
    {
      "type": "Feature",
      "properties": {
        "label": "3-mile boundary",
        "radius_miles": 3,
        "distance_definition": "Straight-line geodesic radius from Main Campus reference point"
      },
      "geometry": {
        "type": "LineString",
        "coordinates": [
          [
            -78.68168,
            35.8229295
          ],
          [
            -78.6705466,
            35.8219801
          ],
          [
            -78.6599005,
            35.8191737
          ],
          [
            -78.6525175,
            35.8159211
          ],
          [
            -78.6438209,
            35.8102063
          ],
          [
            -78.6367808,
            35.8031496
          ],
          [
            -78.632776,
            35.7971604
          ],
          [
            -78.6293234,
            35.7885261
          ],
          [
            -78.6281598,
            35.7794981
          ],
          [
            -78.6293353,
            35.7704712
          ],
          [
            -78.6327977,
            35.7618398
          ],
          [
            -78.6368075,
            35.7558537
          ],
          [
            -78.6438501,
            35.7488019
          ],
          [
            -78.6525442,
            35.7430918
          ],
          [
            -78.6599222,
            35.7398424
          ],
          [
            -78.6705585,
            35.7370388
          ],
          [
            -78.68168,
            35.7360905
          ],
          [
            -78.6928015,
            35.7370388
          ],
          [
            -78.7034378,
            35.7398424
          ],
          [
            -78.7108158,
            35.7430918
          ],
          [
            -78.7195099,
            35.7488019
          ],
          [
            -78.7265525,
            35.7558537
          ],
          [
            -78.7305623,
            35.7618398
          ],
          [
            -78.7340247,
            35.7704712
          ],
          [
            -78.7352002,
            35.7794981
          ],
          [
            -78.7340366,
            35.7885261
          ],
          [
            -78.730584,
            35.7971604
          ],
          [
            -78.7265792,
            35.8031496
          ],
          [
            -78.7195391,
            35.8102063
          ],
          [
            -78.7108425,
            35.8159211
          ],
          [
            -78.7034595,
            35.8191737
          ],
          [
            -78.6928134,
            35.8219801
          ],
          [
            -78.68168,
            35.8229295
          ]
        ]
      }
    }
  ]
}